NORAD_CAT_ID,OBJECT_NAME,OBJECT_TYPE,EPOCH,MEAN_MOTION,ECCENTRICITY,INCLINATION,RA_OF_ASC_NODE,ARG_OF_PERICENTER,MEAN_ANOMALY,BSTAR,MEAN_MOTION_DOT,MEAN_MOTION_DDOT,TLE_LINE0,TLE_LINE1,TLE_LINE2,SEMIMAJOR_AXIS,PERIOD,APOGEE,PERIGEE,DECAYED
55787.0,STARLINK-5811,PAYLOAD,2024-07-29 04:55:13,14.98328386,0.0003351,69.9982,248.3654,270.071,90.0065,3.8195e-05,3.63e-06,0.0,0 STARLINK-5811,1 55787U 23028AY  24211.20501205  .00000363  00000-0  38195-4 0  9994,2 55787  69.9982 248.3654 0003351 270.0710  90.0065 14.98328386 78869,6950.198,96.107,574.392,569.734,0.0
55787.0,STARLINK-5811,PAYLOAD,2024-07-29 12:55:53,14.98330697,0.0003335,69.9982,247.5242,268.2741,91.8036,4.2415e-05,4.13e-06,0.0,0 STARLINK-5811,1 55787U 23028AY  24211.53881049  .00000413  00000-0  42415-4 0  9993,2 55787  69.9982 247.5242 0003335 268.2741  91.8036 14.98330697 78920,6950.191,96.107,574.374,569.738,0.0
55787.0,STARLINK-5811,PAYLOAD,2024-07-29 19:20:25,14.98330367,0.0003319,69.9983,246.8505,269.684,90.3939,8.3327e-06,6e-08,0.0,0 STARLINK-5811,1 55787U 23028AY  24211.80585166  .00000006  00000-0  83327-5 0  9990,2 55787  69.9983 246.8505 0003319 269.6840  90.3939 14.98330367 78966,6950.192,96.107,574.364,569.75,0.0
55787.0,STARLINK-5811,PAYLOAD,2024-07-30 04:57:13,14.9833177,0.0003357,69.9981,245.8403,270.0842,89.9932,1.3638e-05,7e-07,0.0,0 STARLINK-5811,1 55787U 23028AY  24212.20641024  .00000070  00000-0  13638-4 0  9999,2 55787  69.9981 245.8403 0003357 270.0842  89.9932 14.98331770 79013,6950.187,96.107,574.386,569.719,0.0
55787.0,STARLINK-5811,PAYLOAD,2024-07-30 09:45:37,14.98331944,0.000336,69.9981,245.3356,268.967,91.1104,1.4836e-05,8.4e-07,0.0,0 STARLINK-5811,1 55787U 23028AY  24212.40668977  .00000084  00000-0  14836-4 0  9993,2 55787  69.9981 245.3356 0003360 268.9670  91.1104 14.98331944 79057,6950.187,96.107,574.387,569.717,0.0
55787.0,STARLINK-5811,PAYLOAD,2024-07-30 19:22:26,14.9833108,0.000336,69.9981,244.3255,269.2862,90.7913,1.4405e-05,7.9e-07,0.0,0 STARLINK-5811,1 55787U 23028AY  24212.80724987  .00000079  00000-0  14405-4 0  9997,2 55787  69.9981 244.3255 0003360 269.2862  90.7913 14.98331080 79112,6950.19,96.107,574.39,569.719,0.0
55787.0,STARLINK-5811,PAYLOAD,2024-07-31 04:59:14,14.98329422,0.0003362,69.998,243.3156,269.2496,90.8277,-1.089e-05,-2.23e-06,0.0,0 STARLINK-5811,1 55787U 23028AY  24213.20781162 -.00000223  00000-0 -10890-4 0  9997,2 55787  69.9980 243.3156 0003362 269.2496  90.8277 14.98329422 79161,6950.195,96.107,574.396,569.723,0.0
55787.0,STARLINK-5811,PAYLOAD,2024-07-31 11:23:47,14.98329027,0.0003363,69.998,242.6422,269.3754,90.702,-1.3396e-05,-2.53e-06,0.0,0 STARLINK-5811,1 55787U 23028AY  24213.47485194 -.00000253  00000-0 -13396-4 0  9999,2 55787  69.9980 242.6422 0003363 269.3754  90.7020 14.98329027 79210,6950.196,96.107,574.398,569.724,0.0
55787.0,STARLINK-5811,PAYLOAD,2024-07-31 19:24:27,14.9832999,0.0003414,69.9979,241.8005,270.1971,89.8796,2.3493e-06,-6.5e-07,0.0,0 STARLINK-5811,1 55787U 23028AY  24213.80865086 -.00000065  00000-0  23493-5 0  9998,2 55787  69.9979 241.8005 0003414 270.1971  89.8796 14.98329990 79267,6950.193,96.107,574.431,569.685,0.0
55787.0,STARLINK-5811,PAYLOAD,2024-08-01 05:01:15,14.98330268,0.0003424,69.9978,240.7906,270.0936,89.9831,1.3335e-05,6.6e-07,0.0,0 STARLINK-5811,1 55787U 23028AY  24214.20921025  .00000066  00000-0  13335-4 0  9992,2 55787  69.9978 240.7906 0003424 270.0936  89.9831 14.98330268 79312,6950.192,96.107,574.437,569.677,0.0
55787.0,STARLINK-5811,PAYLOAD,2024-08-01 11:25:47,14.98332143,0.0003434,69.9978,240.1172,270.0823,89.9942,1.2458e-05,5.6e-07,0.0,0 STARLINK-5811,1 55787U 23028AY  24214.47624885  .00000056  00000-0  12458-4 0  9999,2 55787  69.9978 240.1172 0003434 270.0823  89.9942 14.98332143 79369,6950.186,96.107,574.438,569.665,0.0
55787.0,STARLINK-5811,PAYLOAD,2024-08-02 05:03:16,14.98329971,0.0003449,69.9977,238.2653,269.7882,90.2882,3.8327e-05,3.64e-06,0.0,0 STARLINK-5811,1 55787U 23028AY  24215.21060887  .00000364  00000-0  38327-4 0  9993,2 55787  69.9977 238.2653 0003449 269.7882  90.2882 14.98329971 79460,6950.193,96.107,574.455,569.661,0.0
55787.0,STARLINK-5811,PAYLOAD,2024-08-02 11:27:48,14.9833096,0.0003454,69.9978,237.592,269.8559,90.2204,4.0677e-05,3.92e-06,0.0,0 STARLINK-5811,1 55787U 23028AY  24215.47764810  .00000392  00000-0  40677-4 0  9990,2 55787  69.9978 237.5920 0003454 269.8559  90.2204 14.98330960 79512,6950.19,96.107,574.456,569.654,0.0
55787.0,STARLINK-5811,PAYLOAD,2024-08-03 05:05:17,14.98331016,0.0003445,69.9978,235.7399,269.5292,90.5472,2.078e-05,1.55e-06,0.0,0 STARLINK-5811,1 55787U 23028AY  24216.21200789  .00000155  00000-0  20780-4 0  9993,2 55787  69.9978 235.7399 0003445 269.5292  90.5472 14.98331016 79617,6950.19,96.107,574.449,569.66,0.0
55787.0,STARLINK-5811,PAYLOAD,2024-08-03 11:29:49,14.98332019,0.0003465,69.9979,235.0669,269.8285,90.2477,1.1787e-05,4.8e-07,0.0,0 STARLINK-5811,1 55787U 23028AY  24216.47904726  .00000048  00000-0  11787-4 0  9991,2 55787  69.9979 235.0669 0003465 269.8285  90.2477 14.98332019 79669,6950.187,96.107,574.46,569.643,0.0
55787.0,STARLINK-5811,PAYLOAD,2024-08-04 05:07:18,14.98329136,0.0003444,69.9981,233.2148,271.8754,88.2011,-1.199e-05,-2.36e-06,0.0,0 STARLINK-5811,1 55787U 23028AY  24217.21340953 -.00000236  00000-0 -11990-4 0  9997,2 55787  69.9981 233.2148 0003444 271.8754  88.2011 14.98329136 79763,6950.196,96.107,574.454,569.667,0.0
55787.0,STARLINK-5811,PAYLOAD,2024-08-04 11:31:50,14.98330753,0.0003426,69.9981,232.5414,272.102,87.9746,8.4641e-06,8e-08,0.0,0 STARLINK-5811,1 55787U 23028AY  24217.48044801  .00000008  00000-0  84641-5 0  9998,2 55787  69.9981 232.5414 0003426 272.1020  87.9746 14.98330753 79815,6950.191,96.107,574.437,569.674,0.0
55787.0,STARLINK-5811,PAYLOAD,2024-08-04 17:56:22,14.98332205,0.0003422,69.9981,231.8681,272.1403,87.9365,1.1097e-05,3.9e-07,0.0,0 STARLINK-5811,1 55787U 23028AY  24217.74748673  .00000039  00000-0  11097-4 0  9993,2 55787  69.9981 231.8681 0003422 272.1403  87.9365 14.98332205 79859,6950.186,96.107,574.429,569.673,0.0
55787.0,STARLINK-5811,PAYLOAD,2024-08-05 05:09:19,14.9833341,0.0003451,69.9981,230.6898,271.9157,88.1606,4.0487e-05,3.9e-06,0.0,0 STARLINK-5811,1 55787U 23028AY  24218.21480433  .00000390  00000-0  40487-4 0  9998,2 55787  69.9981 230.6898 0003451 271.9157  88.1606 14.98333410 79918,6950.182,96.107,574.446,569.649,0.0
55787.0,STARLINK-5811,PAYLOAD,2024-08-05 17:58:23,14.98330145,0.0003414,69.9982,229.3431,272.4054,87.6714,1.1438e-05,4.3e-07,0.0,0 STARLINK-5811,1 55787U 23028AY  24218.74888599  .00000043  00000-0  11438-4 0  9990,2 55787  69.9982 229.3431 0003414 272.4054  87.6714 14.98330145 80006,6950.192,96.107,574.43,569.685,0.0
55787.0,STARLINK-5811,PAYLOAD,2024-08-06 05:11:20,14.98325015,0.000333,69.9984,228.1649,272.2234,87.8543,-2.2454e-05,-3.61e-06,0.0,0 STARLINK-5811,1 55787U 23028AY  24219.21621084 -.00000361  00000-0 -22454-4 0  9992,2 55787  69.9984 228.1649 0003330 272.2234  87.8543 14.98325015 80069,6950.208,96.107,574.388,569.759,0.0
55787.0,STARLINK-5811,PAYLOAD,2024-08-06 08:23:36,14.98323877,0.0003354,69.9985,227.8286,270.8338,89.2436,-3.4729e-05,-5.07e-06,0.0,0 STARLINK-5811,1 55787U 23028AY  24219.34973212 -.00000507  00000-0 -34729-4 0  9999,2 55787  69.9985 227.8286 0003354 270.8338  89.2436 14.98323877 80092,6950.212,96.107,574.408,569.746,0.0
55787.0,STARLINK-5811,PAYLOAD,2024-08-06 18:00:25,14.98327364,0.0003404,69.9984,226.8186,271.3664,88.7105,-1.9701e-05,-3.28e-06,0.0,0 STARLINK-5811,1 55787U 23028AY  24219.75029030 -.00000328  00000-0 -19701-4 0  9998,2 55787  69.9984 226.8186 0003404 271.3664  88.7105 14.98327364 80152,6950.201,96.107,574.432,569.7,0.0
55787.0,STARLINK-5811,PAYLOAD,2024-08-07 03:37:13,14.98331157,0.0003413,69.9985,225.809,271.3847,88.6921,-1.6911e-05,-2.95e-06,0.0,0 STARLINK-5811,1 55787U 23028AY  24220.15084791 -.00000295  00000-0 -16911-4 0  9992,2 55787  69.9985 225.8090 0003413 271.3847  88.6921 14.98331157 80205,6950.189,96.107,574.426,569.682,0.0
55787.0,STARLINK-5811,PAYLOAD,2024-08-08 10:03:45,14.98333212,0.0003481,69.9984,222.6105,271.1088,88.9672,0.00012069,1.347e-05,0.0,0 STARLINK-5811,1 55787U 23028AY  24221.41928211  .00001347  00000-0  12069-3 0  9992,2 55787  69.9984 222.6105 0003481 271.1088  88.9672 14.98333212 80408,6950.183,96.107,574.467,569.629,0.0
55787.0,STARLINK-5811,PAYLOAD,2024-08-09 03:41:15,14.98329855,0.0003392,69.9987,220.7589,271.2955,88.7815,1.8558e-06,-7.1e-07,0.0,0 STARLINK-5811,1 55787U 23028AY  24222.15364731 -.00000071  00000-0  18558-5 0  9990,2 55787  69.9987 220.7589 0003392 271.2955  88.7815 14.98329855 80507,6950.193,96.107,574.416,569.701,0.0
55787.0,STARLINK-5811,PAYLOAD,2024-08-09 10:05:47,14.9832978,0.0003274,69.9989,220.0867,263.9273,96.1513,9.5349e-06,2.1e-07,0.0,0 STARLINK-5811,1 55787U 23028AY  24222.42068667  .00000021  00000-0  95349-5 0  9996,2 55787  69.9989 220.0867 0003274 263.9273  96.1513 14.98329780 80551,6950.194,96.107,574.334,569.783,0.0
55787.0,STARLINK-5811,PAYLOAD,2024-08-10 03:43:15,14.98334034,0.0003302,69.9987,218.2346,265.6845,94.3937,-8.4859e-06,-1.94e-06,0.0,0 STARLINK-5811,1 55787U 23028AY  24223.15504340 -.00000194  00000-0 -84859-5 0  9997,2 55787  69.9987 218.2346 0003302 265.6845  94.3937 14.98334034 80655,6950.18,96.107,574.34,569.75,0.0
55787.0,STARLINK-5811,PAYLOAD,2024-08-10 10:07:47,14.98335479,0.0003291,69.9987,217.5611,266.2963,93.782,1.0657e-05,3.4e-07,0.0,0 STARLINK-5811,1 55787U 23028AY  24223.42208134  .00000034  00000-0  10657-4 0  9994,2 55787  69.9987 217.5611 0003291 266.2963  93.7820 14.98335479 80701,6950.176,96.107,574.328,569.754,0.0
55787.0,STARLINK-5811,PAYLOAD,2024-08-11 08:33:40,14.98323815,0.0003278,69.9988,215.2042,265.951,94.1274,0.00017898,2.043e-05,0.0,0 STARLINK-5811,1 55787U 23028AY  24224.35672419  .00002043  00000-0  17898-3 0  9993,2 55787  69.9988 215.2042 0003278 265.9510  94.1274 14.98323815 80837,6950.212,96.107,574.355,569.799,0.0
